NORAD_CAT_ID,OBJECT_NAME,OBJECT_TYPE,EPOCH,MEAN_MOTION,ECCENTRICITY,INCLINATION,RA_OF_ASC_NODE,ARG_OF_PERICENTER,MEAN_ANOMALY,BSTAR,MEAN_MOTION_DOT,MEAN_MOTION_DDOT,TLE_LINE0,TLE_LINE1,TLE_LINE2,SEMIMAJOR_AXIS,PERIOD,APOGEE,PERIGEE,DECAYED
53183.0,STARLINK-4268,PAYLOAD,2022-08-22 12:00:00,15.732427599999998,0.0003925,53.2148,229.0949,12.3854,197.68400000000003,-0.00029421,-0.00041805,0.0,0 STARLINK-4268,1 53183U 22083BD  22234.50001157 -.00041805  00000-0 -29421-3 0  9998,2 53183  53.2148 229.0949 0003925  12.3854 197.6840 15.73242760  6303,6727.773,91.531,352.279,346.99800000000016,0.0
53183.0,STARLINK-4268,PAYLOAD,2022-08-22 22:00:00,15.73180328,0.0003695,53.215,227.0306,13.5683,37.6959,0.00049501,0.00069386,0.0,0 STARLINK-4268,1 53183U 22083BD  22234.91667824  .00069386  00000-0  49501-3 0  9995,2 53183  53.2150 227.0306 0003695  13.5683  37.6959 15.73180328  1308,6727.951,91.534,352.302,347.33,0.0
53183.0,STARLINK-4268,PAYLOAD,2022-08-23 06:00:00,15.73237413,0.0003916,53.2145,225.3831,13.5031,126.6891,-0.00026477,-0.00037694,0.0,0 STARLINK-4268,1 53183U 22083BD  22235.25001157 -.00037694  00000-0 -26477-3 0  9990,2 53183  53.2145 225.3831 0003916  13.5031 126.6891 15.73237413  6429,6727.7890000000025,91.531,352.288,347.019,0.0
53183.0,STARLINK-4268,PAYLOAD,2022-08-23 14:00:01,15.73214477,0.0003872,53.214,223.7331,11.796,217.3549,-0.00032053,-0.00045415,0.0,0 STARLINK-4268,1 53183U 22083BD  22235.58334491 -.00045415  00000-0 -32053-3 0  9993,2 53183  53.2140 223.7331 0003872  11.7960 217.3549 15.73214477  1308,6727.854,91.532,352.324,347.11400000000015,0.0
53183.0,STARLINK-4268,PAYLOAD,2022-08-23 22:00:01,15.731794099999998,0.0003615,53.2142,222.0819,13.2338,304.9121,0.00049409,0.00069251,0.0,0 STARLINK-4268,1 53183U 22083BD  22235.91668981  .00069251  00000-0  49409-3 0  9999,2 53183  53.2142 222.0819 0003615  13.2338 304.9121 15.73179410  1300,6727.954000000002,91.534,352.251,347.38699999999994,0.0
53183.0,STARLINK-4268,PAYLOAD,2022-08-24 04:00:00,15.73216578,0.0003788,53.2144,220.8465,13.5429,281.2201,-5.289100000000001e-05,-8.049e-05,0.0,0 STARLINK-4268,1 53183U 22083BD  22236.16667824 -.00008049  00000-0 -52891-4 0  9992,2 53183  53.2144 220.8465 0003788  13.5429 281.2201 15.73216578  6566,6727.848000000001,91.532,352.261,347.164,0.0
53183.0,STARLINK-4268,PAYLOAD,2022-08-24 14:00:01,15.73264935,0.0003855,53.2145,218.7843,12.899,123.0452,-0.00040365,-0.00057075,0.0,0 STARLINK-4268,1 53183U 22083BD  22236.58334491 -.00057075  00000-0 -40365-3 0  9994,2 53183  53.2145 218.7843 0003855  12.8990 123.0452 15.73264935  6632,6727.71,91.529,352.1690000000001,346.982,0.0
53183.0,STARLINK-4268,PAYLOAD,2022-08-24 22:00:00,15.73201444,0.000366,53.2147,217.1333,13.4757,211.457,0.00013241,0.00018006,0.0,0 STARLINK-4268,1 53183U 22083BD  22236.91667824  .00018006  00000-0  13241-3 0  9992,2 53183  53.2147 217.1333 0003660  13.4757 211.4570 15.73201444  1301,6727.891,91.533,352.218,347.2940000000001,0.0
53183.0,STARLINK-4268,PAYLOAD,2022-08-25 06:00:02,15.73210371,0.0003913,53.2144,215.4857,13.0144,300.9231,4.9025e-05,6.267e-05,0.0,0 STARLINK-4268,1 53183U 22083BD  22237.25002315  .00006267  00000-0  49025-4 0  9994,2 53183  53.2144 215.4857 0003913  13.0144 300.9231 15.73210371  6736,6727.866,91.533,352.36300000000006,347.098,0.0
53183.0,STARLINK-4268,PAYLOAD,2022-08-25 14:00:01,15.73241693,0.0003775,53.2139,213.8354,11.2611,31.5562,-0.00064011,-0.00089709,0.0,0 STARLINK-4268,1 53183U 22083BD  22237.58334491 -.00089709  00000-0 -64011-3 0  9998,2 53183  53.2139 213.8354 0003775  11.2611  31.5562 15.73241693  1302,6727.776,91.531,352.181,347.102,0.0
53183.0,STARLINK-4268,PAYLOAD,2022-08-25 22:00:00,15.73201898,0.0003555,53.2144,212.1844,13.1416,118.6537,7.9138e-05,0.00010501,0.0,0 STARLINK-4268,1 53183U 22083BD  22237.91667824  .00010501  00000-0  79138-4 0  9993,2 53183  53.2144 212.1844 0003555  13.1416 118.6537 15.73201898  1306,6727.89,91.533,352.147,347.36300000000006,0.0
53183.0,STARLINK-4268,PAYLOAD,2022-08-26 14:00:01,15.73266471,0.000373,53.2148,208.8864,11.2937,298.4455,-0.00074672,-0.00104475,0.0,0 STARLINK-4268,1 53183U 22083BD  22238.58335648 -.00104475  00000-0 -74672-3 0  9996,2 53183  53.2148 208.8864 0003730  11.2937 298.4455 15.73266471  6945,6727.706,91.529,352.08,347.061,0.0
53183.0,STARLINK-4268,PAYLOAD,2022-08-26 20:00:01,15.73166836,0.0003613,53.2149,207.648,11.9324,274.4811,0.00049593,0.00069476,0.0,0 STARLINK-4268,1 53183U 22083BD  22238.83334491  .00069476  00000-0  49593-3 0  9992,2 53183  53.2149 207.6480 0003613  11.9324 274.4811 15.73166836  6982,6727.99,91.535,352.286,347.4240000000001,0.0
53183.0,STARLINK-4268,PAYLOAD,2022-08-26 22:00:00,15.73190271,0.0003609,53.2152,207.2358,12.5925,26.0412,0.00030497,0.00042389,0.0,0 STARLINK-4268,1 53183U 22083BD  22238.91667824  .00042389  00000-0  30497-3 0  9997,2 53183  53.2152 207.2358 0003609  12.5925  26.0412 15.73190271  1304,6727.9230000000025,91.534,352.216,347.36,0.0
53183.0,STARLINK-4268,PAYLOAD,2022-08-27 14:00:01,15.73196505,0.0003683,53.2146,203.9375,10.2499,206.2815,-9.2201e-05,-0.00013546,0.0,0 STARLINK-4268,1 53183U 22083BD  22239.58334491 -.00013546  00000-0 -92201-4 0  9999,2 53183  53.2146 203.9375 0003683  10.2499 206.2815 15.73196505  1307,6727.905,91.533,352.24800000000016,347.292,0.0
53183.0,STARLINK-4268,PAYLOAD,2022-08-27 20:00:01,15.73179121,0.0003466,53.2147,202.6993,10.5462,182.6775,0.00049079,0.00068778,0.0,0 STARLINK-4268,1 53183U 22083BD  22239.83334491  .00068778  00000-0  49079-3 0  9996,2 53183  53.2147 202.6993 0003466  10.5462 182.6775 15.73179121  7147,6727.955,91.534,352.152,347.48800000000006,0.0
53183.0,STARLINK-4268,PAYLOAD,2022-08-27 22:00:00,15.73213313,0.0003467999999999,53.215,202.2872,10.5677,294.877,0.00011173,0.00015099,0.0,0 STARLINK-4268,1 53183U 22083BD  22239.91667824  .00015099  00000-0  11173-3 0  9996,2 53183  53.2150 202.2872 0003468  10.5677 294.8770 15.73213313  1308,6727.857,91.532,352.055,347.389,0.0
53183.0,STARLINK-4268,PAYLOAD,2022-08-28 04:00:00,15.73237657,0.0003634,53.215,201.0518,9.9061,272.2277,-0.00026935,-0.00038329,0.0,0 STARLINK-4268,1 53183U 22083BD  22240.16667824 -.00038329  00000-0 -26935-3 0  9990,2 53183  53.2150 201.0518 0003634   9.9061 272.2277 15.73237657  7198,6727.788000000001,91.531,352.098,347.208,0.0
53183.0,STARLINK-4268,PAYLOAD,2022-08-28 14:00:01,15.73202745,0.0003577,53.2155,198.9889,7.6394,115.6924,6.0066e-05,7.817e-05,0.0,0 STARLINK-4268,1 53183U 22083BD  22240.58334491  .00007817  00000-0  60066-4 0  9997,2 53183  53.2155 198.9889 0003577   7.6394 115.6924 15.73202745  1304,6727.887,91.533,352.159,347.346,0.0
53183.0,STARLINK-4268,PAYLOAD,2022-08-28 20:00:01,15.73210878,0.0003454,53.2156,197.7508,8.7419,91.2852,0.00021183,0.00029231,0.0,0 STARLINK-4268,1 53183U 22083BD  22240.83334491  .00029231  00000-0  21183-3 0  9995,2 53183  53.2156 197.7508 0003454   8.7419  91.2852 15.73210878  7305,6727.864000000001,91.533,352.05300000000005,347.405,0.0
53183.0,STARLINK-4268,PAYLOAD,2022-08-28 22:00:00,15.73254418,0.0003407,53.2158,197.3388,8.3681,203.8839,-0.00042884,-0.00060538,0.0,0 STARLINK-4268,1 53183U 22083BD  22240.91667824 -.00060538  00000-0 -42884-3 0  9991,2 53183  53.2158 197.3388 0003407   8.3681 203.8839 15.73254418  1302,6727.74,91.53,351.897,347.31300000000016,0.0
53183.0,STARLINK-4268,PAYLOAD,2022-08-29 04:00:00,15.73219096,0.0003685,53.2155,196.1032,5.7662,183.215,-0.00089352,-0.00124348,0.0,0 STARLINK-4268,1 53183U 22083BD  22241.16667824 -.00124348  00000-0 -89352-3 0  9990,2 53183  53.2155 196.1032 0003685   5.7662 183.2150 15.73219096  7351,6727.840999999999,91.532,352.185,347.227,0.0
53183.0,STARLINK-4268,PAYLOAD,2022-08-29 14:00:01,15.73144354,0.0003493,53.2152,194.0404,3.1502,26.9402,0.00013282,0.00018018,0.0,0 STARLINK-4268,1 53183U 22083BD  22241.58334491  .00018018  00000-0  13282-3 0  9990,2 53183  53.2152 194.0404 0003493   3.1502  26.9402 15.73144354  1306,6728.054,91.536,352.269,347.569,0.0
53183.0,STARLINK-4268,PAYLOAD,2022-08-29 22:00:00,15.73166937,0.0003376,53.2156,192.3907,5.2556,113.6908,0.00024636,0.00034052,0.0,0 STARLINK-4268,1 53183U 22083BD  22241.91667824  .00034052  00000-0  24636-3 0  9997,2 53183  53.2156 192.3907 0003376   5.2556 113.6908 15.73166937  1307,6727.989000000001,91.535,352.126,347.583,0.0
53183.0,STARLINK-4268,PAYLOAD,2022-08-30 14:00:01,15.73253921,0.0003484,53.2159,189.0921,3.9942,292.7875,-0.00051756,-0.00072829,0.0,0 STARLINK-4268,1 53183U 22083BD  22242.58334491 -.00072829  00000-0 -51756-3 0  9991,2 53183  53.2159 189.0921 0003484   3.9942 292.7875 15.73253921  7570,6727.741,91.53,351.95,347.26300000000015,0.0
53183.0,STARLINK-4268,PAYLOAD,2022-08-30 22:00:00,15.73201412,0.0003451,53.216,187.4423,5.1522,20.5934,0.00016951,0.0002323999999999,0.0,0 STARLINK-4268,1 53183U 22083BD  22242.91667824  .00023240  00000-0  16951-3 0  9996,2 53183  53.2160 187.4423 0003451   5.1522  20.5934 15.73201412  1309,6727.891,91.533,352.07800000000015,347.434,0.0
53183.0,STARLINK-4268,PAYLOAD,2022-08-31 14:00:01,15.73176079,0.0003529,53.2153,184.1434,10.2756,193.3518,0.00023686,0.00032724,0.0,0 STARLINK-4268,1 53183U 22083BD  22243.58334491  .00032724  00000-0  23686-3 0  9991,2 53183  53.2153 184.1434 0003529  10.2756 193.3518 15.73176079  1306,6727.9630000000025,91.535,352.20300000000015,347.454,0.0
53183.0,STARLINK-4268,PAYLOAD,2022-08-31 20:00:01,15.73188612,0.0003383,53.2154,182.9059,12.35,167.9489,0.00043844,0.00061345,0.0,0 STARLINK-4268,1 53183U 22083BD  22243.83334491  .00061345  00000-0  43844-3 0  9998,2 53183  53.2154 182.9059 0003383  12.3500 167.9489 15.73188612  7771,6727.928000000001,91.534,352.069,347.517,0.0
53183.0,STARLINK-4268,PAYLOAD,2022-08-31 22:00:00,15.73210001,0.0003438,53.2154,182.4941,11.7585,280.7636,0.00011959,0.00016204,0.0,0 STARLINK-4268,1 53183U 22083BD  22243.91667824  .00016204  00000-0  11959-3 0  9992,2 53183  53.2154 182.4941 0003438  11.7585 280.7636 15.73210001  1302,6727.8669999999975,91.533,352.045,347.4190000000001,0.0
